GLOBALSTAR M094         
1 39074U 13005C   25187.97271352 -.00000113  00000+0 -50093-4 0  9998
2 39074  51.9954 121.8744 0000553  10.2799 349.8079 12.62262761574872
GLOBALSTAR M096         
1 39075U 13005D   25187.90666734 -.00000093  00000+0  57993-4 0  9996
2 39075  52.0047 170.6052 0000307 327.3777  32.7071 12.62265613573785
GLOBALSTAR M078         
1 39076U 13005E   25188.19704163  .00000005  00000+0  60661-3 0  9995
2 39076  51.9863 254.2074 0000920 197.7393 162.3441 12.62259887572446
GLOBALSTAR M095         
1 39077U 13005F   25188.38160807 -.00000079  00000+0  13989-3 0  9991
2 39077  51.9789 250.8304 0000445 212.7823 147.3016 12.62267976572326
GLOBALSTAR M087         
1 52888U 22064A   25188.48617155 -.00000094  00000+0  53659-4 0  9991
2 52888  52.0008  31.9625 0001102  92.8156 267.2837 12.63725635147602
